STARLINK-1063           
1 44768U 19074BH  26068.75225384 -.00812325  00000+0 -29858-1 0  9993
2 44768  53.1603 219.1040 0001219  60.1573 299.9548 15.29959368348324
2025-155V               
1 64895U 25155V   26068.85787115  .00013705  00000+0  51002-3 0  9990
2 64895  97.4485  37.2490 0008035 152.8264 207.3397 15.27583301 65579
